{"spkid": "20482798", "covariance": {"epoch": "2459056.5", "labels": ["e", "q", "tp", "node", "peri", "i"], "data": [["4.381955045927612E-15", "-6.948074281169879E-15", "1.468551193824902E-12", "2.017382653419349E-13", "-3.041178783034259E-13", "1.261441540895311E-13"], ["-6.948074281169879E-15", "1.102644068250284E-14", "-2.263691688708663E-12", "-3.12690481149389E-13", "4.807817475951721E-13", "-1.953449722215531E-13"], ["1.468551193824902E-12", "-2.263691688708663E-12", "6.668339020759621E-9", "7.055757468361993E-10", "7.762940806420218E-11", "2.915229963008016E-10"], ["2.017382653419349E-13", "-3.12690481149389E-13", "7.055757468361993E-10", "4.858310343561863E-10", "-3.841352467350694E-10", "2.350392809338621E-10"], ["-3.041178783034259E-13", "4.807817475951721E-13", "7.762940806420218E-11", "-3.841352467350694E-10", "4.05083322815082E-10", "-1.949789053608899E-10"], ["1.261441540895311E-13", "-1.953449722215531E-13", "2.915229963008016E-10", "2.350392809338621E-10", "-1.949789053608899E-10", "1.54546296017332E-10"]], "elements": [{"units": null, "title": "eccentricity", "value": ".8292831299141619", "sigma": 6.61963371035559e-08, "name": "e", "label": "e"}, {"label": "q", "value": ".2707233019957422", "title": "perihelion distance", "units": "au", "name": "q", "sigma": 1.05006860168766e-07}, {"title": "time of perihelion passage", "value": "2459324.452724261023", "units": "TDB", "sigma": 8.16598984860967e-05, "name": "tp", "label": "tp"}, {"label": "node", "sigma": 2.20415751332836e-05, "name": "om", "units": "deg", "value": "141.5741645843324", "title": "longitude of the ascending node"}, {"label": "peri", "units": "deg", "value": "47.00201112422936", "title": "argument of perihelion", "sigma": 2.01266818630166e-05, "name": "w"}, {"title": "inclination", "value": "19.01283584279389", "units": "deg", "name": "i", "sigma": 1.24316650541e-05, "label": "i"}]}, "elements": [{"label": "e", "name": "e", "sigma": "6.6215E-8", "title": "eccentricity", "value": ".8298543024117532", "units": null}, {"units": "au", "title": "semi-major axis", "value": "1.585482726547933", "name": "a", "sigma": "1.7723E-8", "label": "a"}, {"sigma": "1.0505E-7", "name": "q", "value": ".2697630645226137", "title": "perihelion distance", "units": "au", "label": "q"}, {"sigma": "1.2411E-5", "name": "i", "value": "18.97023082733026", "title": "inclination; angle with respect to x-y ecliptic plane", "units": "deg", "label": "i"}, {"name": "om", "sigma": "2.2164E-5", "units": "deg", "title": "longitude of the ascending node", "value": "141.4033265658317", "label": "node"}, {"label": "peri", "name": "w", "sigma": "2.0244E-5", "units": "deg", "title": "argument of perihelion", "value": "47.17056088259082"}, {"label": "M", "title": "mean anomaly", "value": "205.9437237855516", "units": "deg", "sigma": "4.6748E-5", "name": "ma"}, {"value": "2461512.545263205033", "title": "time of perihelion passage", "units": "TDB", "name": "tp", "sigma": "9.7588E-5", "label": "tp"}, {"label": "period", "sigma": "1.2226E-5", "name": "per", "title": "sidereal orbital period", "value": "729.1899915680052", "units": "d"}, {"sigma": "8.2779E-9", "name": "n", "value": ".4936984930715768", "title": "mean motion", "units": "deg/d", "label": "n"}, {"name": "ad", "sigma": "3.243E-8", "value": "2.901202388573253", "title": "aphelion distance", "units": "au", "label": "Q"}], "epoch": "2461200.5"}